NORAD_CAT_ID,OBJECT_NAME,OBJECT_TYPE,EPOCH,MEAN_MOTION,ECCENTRICITY,INCLINATION,RA_OF_ASC_NODE,ARG_OF_PERICENTER,MEAN_ANOMALY,BSTAR,MEAN_MOTION_DOT,MEAN_MOTION_DDOT,TLE_LINE0,TLE_LINE1,TLE_LINE2,SEMIMAJOR_AXIS,PERIOD,APOGEE,PERIGEE,DECAYED
53244.0,STARLINK-4125,PAYLOAD,2023-08-18 23:22:27,15.08847913,0.0001181,53.2159,75.7314,91.2637,268.849,-0.00026168,-4.451e-05,0.0,0 STARLINK-4125,1 53244U 22086C   23230.97392608 -.00004451  00000-0 -26168-3 0  9992,2 53244  53.2159  75.7314 0001181  91.2637 268.8490 15.08847913 59783,6917.856,95.437,540.538,538.904,0.0
53244.0,STARLINK-4125,PAYLOAD,2023-08-19 18:27:06,15.08830897,0.0001226,53.216,72.1644,81.3101,278.803,0.00019433,2.805e-05,0.0,0 STARLINK-4125,1 53244U 22086C   23231.76882208  .00002805  00000-0  19433-3 0  9996,2 53244  53.2160  72.1644 0001226  81.3101 278.8030 15.08830897 59906,6917.908,95.438,540.621,538.925,0.0
53244.0,STARLINK-4125,PAYLOAD,2023-08-20 23:04:03,15.088329,0.0001032,53.2161,66.8109,73.9562,286.1544,7.6741e-05,9.34e-06,0.0,0 STARLINK-4125,1 53244U 22086C   23232.96114658  .00000934  00000-0  76741-4 0  9993,2 53244  53.2161  66.8109 0001032  73.9562 286.1544 15.08832900 60086,6917.902,95.438,540.481,539.053,0.0
53244.0,STARLINK-4125,PAYLOAD,2023-08-21 19:44:03,15.08850951,0.0001073,53.2161,62.9454,72.9268,287.1842,0.00028619,4.271e-05,0.0,0 STARLINK-4125,1 53244U 22086C   23233.82225950  .00004271  00000-0  28619-3 0  9995,2 53244  53.2161  62.9454 0001073  72.9268 287.1842 15.08850951 60216,6917.847,95.437,540.454,538.97,0.0
53244.0,STARLINK-4125,PAYLOAD,2023-08-22 21:10:14,15.08831138,0.0001121,53.2165,58.1875,73.3557,286.7558,0.00029846,4.464e-05,0.0,0 STARLINK-4125,1 53244U 22086C   23234.88211001  .00004464  00000-0  29846-3 0  9991,2 53244  53.2165  58.1875 0001121  73.3557 286.7558 15.08831138 60376,6917.907,95.438,540.548,538.997,0.0
53244.0,STARLINK-4125,PAYLOAD,2023-08-23 11:28:42,15.08839312,9.93e-05,53.2171,55.5112,93.871,266.2396,5.2152e-05,5.42e-06,0.0,0 STARLINK-4125,1 53244U 22086C   23235.47826431  .00000542  00000-0  52152-4 0  9996,2 53244  53.2171  55.5112 0000993  93.8710 266.2396 15.08839312 60467,6917.882,95.438,540.434,539.061,0.0
53244.0,STARLINK-4125,PAYLOAD,2023-08-24 20:51:47,15.0883999,0.0001237,53.2167,49.2691,72.8325,287.2802,0.00028457,4.244e-05,0.0,0 STARLINK-4125,1 53244U 22086C   23236.86930439  .00004244  00000-0  28457-3 0  9997,2 53244  53.2167  49.2691 0001237  72.8325 287.2802 15.08839990 61171,6917.88,95.438,540.601,538.89,0.0
53244.0,STARLINK-4125,PAYLOAD,2023-08-25 11:10:15,15.08840773,0.0001179,53.2165,46.5904,111.5441,248.5677,-6.1355e-05,-1.264e-05,0.0,0 STARLINK-4125,1 53244U 22086C   23237.46546294 -.00001264  00000-0 -61355-4 0  9992,2 53244  53.2165  46.5904 0001179 111.5441 248.5677 15.08840773 61262,6917.878,95.438,540.559,538.927,0.0
53244.0,STARLINK-4125,PAYLOAD,2023-08-25 19:07:11,15.08845995,0.0001062,53.2166,45.1035,105.4904,254.6205,5.8753e-05,6.48e-06,0.0,0 STARLINK-4125,1 53244U 22086C   23237.79666143  .00000648  00000-0  58753-4 0  9995,2 53244  53.2166  45.1035 0001062 105.4904 254.6205 15.08845995 61312,6917.862,95.437,540.462,538.992,0.0
53244.0,STARLINK-4125,PAYLOAD,2023-08-26 11:01:03,15.0882861,0.0001206,53.2171,42.1307,109.1887,250.9235,0.00023858,3.51e-05,0.0,0 STARLINK-4125,1 53244U 22086C   23238.45906528  .00003510  00000-0  23858-3 0  9991,2 53244  53.2171  42.1307 0001206 109.1887 250.9235 15.08828610 60910,6917.915,95.438,540.615,538.946,0.0
53244.0,STARLINK-4125,PAYLOAD,2023-08-26 17:22:35,15.08839271,0.0001216,53.2174,40.9415,99.0981,261.0149,0.00011953,1.615e-05,0.0,0 STARLINK-4125,1 53244U 22086C   23238.72402493  .00001615  00000-0  11953-3 0  9990,2 53244  53.2174  40.9415 0001216  99.0981 261.0149 15.08839271 61454,6917.883,95.438,540.589,538.906,0.0
53244.0,STARLINK-4125,PAYLOAD,2023-08-27 17:13:22,15.08845878,0.0001251,53.2177,36.4812,101.1778,258.9355,0.00011243,1.502e-05,0.0,0 STARLINK-4125,1 53244U 22086C   23239.71762085  .00001502  00000-0  11243-3 0  9993,2 53244  53.2177  36.4812 0001251 101.1778 258.9355 15.08845878 61102,6917.862,95.437,540.593,538.862,0.0
53244.0,STARLINK-4125,PAYLOAD,2023-08-28 09:07:14,15.08840885,0.0001342,53.2185,33.5094,97.1631,262.9514,9.2272e-05,1.181e-05,0.0,0 STARLINK-4125,1 53244U 22086C   23240.38002441  .00001181  00000-0  92272-4 0  9996,2 53244  53.2185  33.5094 0001342  97.1631 262.9514 15.08840885 61200,6917.878,95.437,540.671,538.814,0.0
53244.0,STARLINK-4125,PAYLOAD,2023-08-28 17:04:10,15.08836089,0.000132,53.2182,32.0214,92.0184,268.0959,2.9933e-05,1.88e-06,0.0,0 STARLINK-4125,1 53244U 22086C   23240.71123047  .00000188  00000-0  29933-4 0  9999,2 53244  53.2182  32.0214 0001320  92.0184 268.0959 15.08836089 61254,6917.892,95.438,540.671,538.844,0.0
53244.0,STARLINK-4125,PAYLOAD,2023-08-29 16:54:56,15.08844768,0.0001329,53.2182,27.5608,91.0462,269.0683,7.4745e-05,9.02e-06,0.0,0 STARLINK-4125,1 53244U 22086C   23241.70482450  .00000902  00000-0  74745-4 0  9990,2 53244  53.2182  27.5608 0001329  91.0462 269.0683 15.08844768 61402,6917.866,95.437,540.65,538.811,0.0
53244.0,STARLINK-4125,PAYLOAD,2023-08-30 10:24:11,15.08835028,0.0001293,53.218,24.2901,89.9267,270.1873,7.1644e-05,8.52e-06,0.0,0 STARLINK-4125,1 53244U 22086C   23242.43347181  .00000852  00000-0  71644-4 0  9991,2 53244  53.2180  24.2901 0001293  89.9267 270.1873 15.08835028 61514,6917.896,95.438,540.655,538.866,0.0
53244.0,STARLINK-4125,PAYLOAD,2023-08-30 16:45:44,15.08835962,0.0001287,53.218,23.1002,89.1308,270.9831,0.00012983,1.779e-05,0.0,0 STARLINK-4125,1 53244U 22086C   23242.69843014  .00001779  00000-0  12983-3 0  9994,2 53244  53.2180  23.1002 0001287  89.1308 270.9831 15.08835962 62054,6917.893,95.438,540.648,538.867,0.0
53244.0,STARLINK-4125,PAYLOAD,2023-08-31 10:14:59,15.08834875,0.0001186,53.2182,19.8296,85.2883,274.8244,4.2147e-05,3.83e-06,0.0,0 STARLINK-4125,1 53244U 22086C   23243.42707489  .00000383  00000-0  42147-4 0  9997,2 53244  53.2182  19.8296 0001186  85.2883 274.8244 15.08834875 62161,6917.896,95.438,540.582,538.941,0.0
53244.0,STARLINK-4125,PAYLOAD,2023-09-01 02:08:50,15.08845608,0.0001302,53.2189,16.8563,87.7428,272.3713,2.0444e-05,3.8e-07,0.0,0 STARLINK-4125,1 53244U 22086C   23244.08946856  .00000038  00000-0  20444-4 0  9996,2 53244  53.2189  16.8563 0001302  87.7428 272.3713 15.08845608 61769,6917.863,95.437,540.629,538.828,0.0
53244.0,STARLINK-4125,PAYLOAD,2023-09-01 14:51:55,15.08841116,0.0001534,53.2184,14.4768,86.8761,273.2407,0.00021101,3.072e-05,0.0,0 STARLINK-4125,1 53244U 22086C   23244.61938834  .00003072  00000-0  21101-3 0  9993,2 53244  53.2184  14.4768 0001534  86.8761 273.2407 15.08841116 62347,6917.877,95.437,540.803,538.681,0.0
53244.0,STARLINK-4125,PAYLOAD,2023-09-02 08:21:09,15.08841336,9.98e-05,53.22,11.2059,89.7724,270.3383,8.028e-05,9.9e-06,0.0,0 STARLINK-4125,1 53244U 22086C   23245.34803125  .00000990  00000-0  80280-4 0  9998,2 53244  53.2200  11.2059 0000998  89.7724 270.3383 15.08841336 61959,6917.876,95.437,540.432,539.051,0.0
53244.0,STARLINK-4125,PAYLOAD,2023-09-02 13:07:19,15.08838704,0.000151,53.2195,10.315,87.3949,272.7216,5.1749e-05,5.36e-06,0.0,0 STARLINK-4125,1 53244U 22086C   23245.54675383  .00000536  00000-0  51749-4 0  9997,2 53244  53.2195  10.3150 0001510  87.3949 272.7216 15.08838704 62483,6917.884,95.438,540.794,538.705,0.0
53244.0,STARLINK-4125,PAYLOAD,2023-09-02 14:42:42,15.08832422,0.0001454,53.2178,10.0161,88.3533,271.7626,0.00014802,2.068e-05,0.0,0 STARLINK-4125,1 53244U 22086C   23245.61299586  .00002068  00000-0  14802-3 0  9992,2 53244  53.2178  10.0161 0001454  88.3533 271.7626 15.08832422 61990,6917.904,95.438,540.774,538.763,0.0
53244.0,STARLINK-4125,PAYLOAD,2023-09-03 08:11:57,15.08830631,0.0001307,53.2173,6.745,83.6675,276.4466,0.00018043,2.584e-05,0.0,0 STARLINK-4125,1 53244U 22086C   23246.34163522  .00002584  00000-0  18043-3 0  9997,2 53244  53.2173   6.7450 0001307  83.6675 276.4466 15.08830631 62603,6917.909,95.438,540.678,538.87,0.0
53244.0,STARLINK-4125,PAYLOAD,2023-09-03 14:33:29,15.08846759,0.0001417,53.2166,5.5561,77.1113,283.0037,3.5954e-05,2.84e-06,0.0,0 STARLINK-4125,1 53244U 22086C   23246.60658791  .00000284  00000-0  35954-4 0  9999,2 53244  53.2166   5.5561 0001417  77.1113 283.0037 15.08846759 62147,6917.86,95.437,540.705,538.744,0.0
53244.0,STARLINK-4125,PAYLOAD,2023-09-04 08:02:44,15.0883569,0.0001597,53.2168,2.2851,78.0705,282.0466,2.1568e-05,5.5e-07,0.0,0 STARLINK-4125,1 53244U 22086C   23247.33523622  .00000055  00000-0  21568-4 0  9996,2 53244  53.2168   2.2851 0001597  78.0705 282.0466 15.08835690 62250,6917.894,95.438,540.863,538.654,0.0
53244.0,STARLINK-4125,PAYLOAD,2023-09-05 07:53:31,15.08837482,0.0001242,53.2186,357.8229,98.9136,261.1997,3.7019e-06,-2.29e-06,0.0,0 STARLINK-4125,1 53244U 22086C   23248.32883695 -.00000229  00000-0  37019-5 0  9998,2 53244  53.2186 357.8229 0001242  98.9136 261.1997 15.08837482 62904,6917.888,95.438,540.612,538.894,0.0
53244.0,STARLINK-4125,PAYLOAD,2023-09-05 23:47:22,15.08838792,0.0001656,53.2178,354.8518,87.9239,272.1943,8.6502e-05,1.089e-05,0.0,0 STARLINK-4125,1 53244U 22086C   23248.99123464  .00001089  00000-0  86502-4 0  9996,2 53244  53.2178 354.8518 0001656  87.9239 272.1943 15.08838792 62508,6917.884,95.438,540.895,538.603,0.0
53244.0,STARLINK-4125,PAYLOAD,2023-09-06 06:08:55,15.08834578,0.0001426,53.2185,353.6624,92.5116,267.604,0.00012609,1.719e-05,0.0,0 STARLINK-4125,1 53244U 22086C   23249.25619604  .00001719  00000-0  12609-3 0  9998,2 53244  53.2185 353.6624 0001426  92.5116 267.6040 15.08834578 63047,6917.897,95.438,540.748,538.775,0.0
53244.0,STARLINK-4125,PAYLOAD,2023-09-07 07:35:05,15.08857936,0.0001117,53.2192,348.9057,83.406,276.7059,-0.0002431,-4.157e-05,0.0,0 STARLINK-4125,1 53244U 22086C   23250.31603768 -.00004157  00000-0 -24310-3 0  9994,2 53244  53.2192 348.9057 0001117  83.4060 276.7059 15.08857936 62702,6917.826,95.436,540.463,538.918,0.0
